OBJECT_NAME,OBJECT_ID,EPOCH,MEAN_MOTION,ECCENTRICITY,INCLINATION,RA_OF_ASC_NODE,ARG_OF_PERICENTER,MEAN_ANOMALY,EPHEMERIS_TYPE,CLASSIFICATION_TYPE,NORAD_CAT_ID,ELEMENT_SET_NO,REV_AT_EPOCH,BSTAR,MEAN_MOTION_DOT,MEAN_MOTION_DDOT
IRIDE-MS2-HEO-15,2026-100H,2026-05-22T17:14:23.290368,14.91717765,.0001338,97.7364,40.6449,148.9149,211.2149,0,U,68987,999,290,.11236E-3,.1075E-4,0
CAS500-2 RIDESHARE OBJECT J,2026-100J,2026-05-22T15:59:20.043744,14.90557872,.0005343,97.7369,40.5611,227.3197,132.7571,0,U,68988,999,289,.10798E-3,.1001E-4,0
CAS500-2 RIDESHARE OBJECT K,2026-100K,2026-05-22T17:32:24.480960,14.90756594,.0005113,97.7419,40.6341,207.3423,152.7527,0,U,68989,999,290,.1491E-3,.141E-4,0
PEARL-1A,2026-100L,2026-05-22T17:29:59.678016,14.90880295,.0003792,97.7336,40.6287,241.3670,118.7167,0,U,68990,999,290,.12282E-3,.1156E-4,0
YAM-11,2026-100M,2026-05-22T17:25:15.508416,14.91051370,.0002126,97.7390,40.6392,206.9998,153.1110,0,U,68991,999,290,.12316E-3,.1164E-4,0
YAM-16,2026-100N,2026-05-22T17:21:18.316224,14.91347186,.0002261,97.7395,40.6438,203.6476,156.4639,0,U,68992,999,290,.12453E-3,.1187E-4,0
YAM-13,2026-100P,2026-05-22T17:17:30.336864,14.91675081,.0002267,97.7394,40.6471,197.5060,162.6081,0,U,68993,999,290,.12338E-3,.1185E-4,0
NULINK-2,2026-100Q,2026-05-22T17:02:34.310112,14.92371307,.0002632,97.7351,40.6563,66.0471,294.1024,0,U,68994,999,290,.20343E-3,.2026E-4,0
YAM-12,2026-100R,2026-05-22T17:16:18.536736,14.91628773,.0001842,97.7393,40.6474,168.8069,191.3191,0,U,68995,999,290,.18537E-3,.1806E-4,0
CAS500-2 RIDESHARE OBJECT S,2026-100S,2026-05-22T17:24:57.220128,14.91165151,.0002921,97.7386,40.6385,215.0092,145.0935,0,U,68996,999,290,.19121E-3,.1843E-4,0
YAM-15,2026-100T,2026-05-22T17:17:14.112672,14.91762096,.0001777,97.7388,40.6459,188.4117,171.7073,0,U,68997,999,290,.11141E-3,.1067E-4,0
CAS500-2 RIDESHARE OBJECT U,2026-100U,2026-05-21T16:00:01.999584,14.91032252,.0001985,97.7380,39.6013,210.6125,227.5414,0,U,68998,999,130,.398285E-2,.39558E-3,0
CAS500-2 RIDESHARE OBJECT V,2026-100V,2026-05-22T18:00:02.000160,14.91824881,.0001852,97.7354,40.6748,193.6704,332.8297,0,U,68999,999,153,-.167E-2,-.16859E-3,0
GEMINI-POLLUX,2026-100W,2026-05-22T18:00:02.000160,14.91686910,.0002234,97.7383,40.6765,195.7696,322.8279,0,U,69000,999,148,-.16639E-2,-.16741E-3,0
CAS500-2 RIDESHARE OBJECT X,2026-100X,2026-05-22T18:00:02.000160,14.91033301,.0002696,97.7364,40.6609,216.2389,274.2717,0,U,69001,999,130,-.17099E-2,-.16924E-3,0
CAS500-2 RIDESHARE OBJECT Y,2026-100Y,2026-05-22T16:59:45.710016,14.92515093,.0003517,97.7378,40.6604,76.4493,283.7118,0,U,69002,999,289,.1541E-3,.1527E-4,0
CAS500-2 RIDESHARE OBJECT Z,2026-100Z,2026-05-22T15:38:48.213888,14.91812820,.000187,97.7366,40.5782,195.3084,164.8079,0,U,69003,999,288,.12386E-3,.1194E-4,0
GEN1A-1,2026-100AA,2026-05-22T16:31:01.319808,15.19996182,.0006115,97.4071,40.9648,99.1172,261.0755,0,U,69004,999,294,.10175E-3,.2124E-4,0
GEN1A-2,2026-100AB,2026-05-22T18:03:27.771264,15.20127164,.0007008,97.4058,41.0244,102.9732,257.2286,0,U,69005,999,295,.10918E-3,.2293E-4,0
JEN-1,2026-100AC,2026-05-22T16:32:20.794848,15.19948496,.000604,97.4070,40.9640,95.5543,264.6381,0,U,69006,999,293,.16333E-3,.3446E-4,0
BRO-21,2026-100AD,2026-05-22T16:07:55.468992,15.21272166,.0009157,97.4066,40.9831,134.5063,225.6922,0,U,69007,999,292,.12617E-3,.2753E-4,0
YAM-14,2026-100AE,2026-05-22T15:48:23.085792,14.91020745,.000279,97.7373,40.5709,218.7594,141.3424,0,U,69008,999,288,.12409E-3,.1172E-4,0
CAS500-2 RIDESHARE OBJECT AF,2026-100AF,2026-05-22T16:40:30.477216,15.19589455,.000692,97.4063,40.9530,76.9907,283.2100,0,U,69009,999,293,.40052E-3,.8465E-4,0
DRISHTI,2026-100AG,2026-05-22T16:25:16.453344,15.20304539,.0006953,97.4065,40.9649,110.6787,249.5195,0,U,69010,999,293,.85261E-4,.1785E-4,0
CAS500-2 RIDESHARE OBJECT AH,2026-100AH,2026-05-22T16:24:10.119744,15.20371397,.0006316,97.4069,40.9717,113.8225,246.3673,0,U,69011,999,293,.14517E-3,.3093E-4,0
JACKAL-004,2026-100AJ,2026-05-22T16:22:29.721216,15.20473606,.0007061,97.4063,40.9678,115.0105,245.1865,0,U,69012,999,293,.12834E-3,.2735E-4,0
CAS500-2,2026-100AK,2026-05-22T16:24:04.470912,15.20383923,.0009206,97.4094,40.9769,105.7429,254.4822,0,U,69013,999,293,.21847E-3,.4695E-4,0
CAS500-2 RIDESHARE OBJECT AL,2026-100AL,2026-05-22T16:13:56.017056,15.20940020,.0007292,97.4088,40.9888,134.1200,226.0637,0,U,69014,999,293,.13128E-3,.2838E-4,0
FRONTIERSAT,2026-100AM,2026-05-22T16:10:02.826048,15.21216083,.0009936,97.4023,40.9627,124.5698,235.6476,0,U,69015,999,294,.30607E-3,.6771E-4,0
RAVEN,2026-100AN,2026-05-22T16:09:09.079200,15.21199536,.0009266,97.4054,40.9766,130.7978,229.4063,0,U,69016,999,293,.99728E-4,.2157E-4,0
PELICAN-7,2026-100AP,2026-05-22T16:26:44.846592,15.20435764,.0005487,97.4074,40.9692,103.5224,256.6623,0,U,69017,999,293,.24063E-4,.457E-5,0
EDDA-1,2026-100AQ,2026-05-22T16:28:07.533984,15.20153168,.0006282,97.4071,40.9670,105.0829,255.1102,0,U,69018,999,294,.77586E-4,.1611E-4,0
PELICAN-9,2026-100AR,2026-05-22T16:25:33.261600,15.20356208,.0006669,97.4062,40.9642,108.9733,251.2225,0,U,69019,999,293,.97375E-4,.2051E-4,0
CAS500-2 RIDESHARE OBJECT AS,2026-100AS,2026-05-22T16:40:34.397184,15.19533728,.0006119,97.4063,40.9526,76.8164,283.3753,0,U,69020,999,293,.28295E-3,.5948E-4,0
CAS500-2 RIDESHARE OBJECT AT,2026-100AT,2026-05-22T16:38:48.160608,15.19621329,.0006734,97.4047,40.9474,81.0861,279.1136,0,U,69021,999,293,.20717E-3,.4348E-4,0
CAS500-2 RIDESHARE OBJECT AU,2026-100AU,2026-05-22T16:38:11.353344,15.19609038,.0006942,97.4048,40.9474,83.5544,276.6481,0,U,69022,999,293,.11516E-3,.2386E-4,0
QUBE-II,2026-100AV,2026-05-22T16:35:51.667872,15.19798616,.0005092,97.4091,40.9691,86.7220,273.4598,0,U,69023,999,293,.273E-3,.578E-4,0
BALKAN-2,2026-100AW,2026-05-22T16:35:14.210016,15.19796945,.0005084,97.4089,40.9701,89.0878,271.0939,0,U,69024,999,293,.17205E-3,.3617E-4,0
STARLINK-37592,2026-101A,2026-05-22T16:13:00.961248,15.75206593,.0001444,97.2840,357.2914,91.2603,268.8828,0,U,69025,999,262,.47978E-3,.72091E-3,0
STARLINK-37637,2026-101B,2026-05-22T16:10:28.466976,15.75228022,.0001294,97.2839,357.2937,81.9277,278.2135,0,U,69026,999,262,.86226E-3,.130681E-2,0
STARLINK-37548,2026-101C,2026-05-22T16:09:27.439200,15.75202248,.0001006,97.2840,357.2950,95.5549,264.5831,0,U,69027,999,262,.42079E-3,.63132E-3,0
STARLINK-37634,2026-101D,2026-05-22T14:35:56.770080,15.75225310,.0001342,97.2841,357.2301,89.5123,270.6296,0,U,69028,999,261,.77534E-3,.117297E-2,0
STARLINK-37635,2026-101E,2026-05-22T16:05:53.961216,15.75232939,.000123,97.2841,357.2985,90.3886,269.7520,0,U,69029,999,262,.85199E-3,.129128E-2,0
STARLINK-37615,2026-101F,2026-05-22T17:35:20.928768,15.75203154,.0001459,97.2843,357.3666,101.4875,258.6554,0,U,69030,999,263,.51885E-3,.78015E-3,0
STARLINK-37240,2026-101G,2026-05-22T17:34:19.907040,15.75215107,.0001393,97.2841,357.3680,104.0502,256.0918,0,U,69031,999,263,.67441E-3,.10178E-2,0
STARLINK-37596,2026-101H,2026-05-22T17:33:18.815328,15.75234346,.0001201,97.2842,357.3684,90.4506,269.6897,0,U,69032,999,263,.97065E-3,.147457E-2,0
STARLINK-37591,2026-101J,2026-05-22T17:31:47.443008,15.75210362,.0001364,97.2843,357.3701,83.6209,276.5212,0,U,69033,999,263,.55406E-3,.83396E-3,0
STARLINK-37611,2026-101K,2026-05-22T17:32:48.375744,15.75208898,.0001341,97.2842,357.3692,101.7631,258.3784,0,U,69034,999,263,.52668E-3,.79225E-3,0
STARLINK-37512,2026-101L,2026-05-22T17:31:16.834944,15.75214078,.0001241,97.2842,357.3707,114.8396,245.2999,0,U,69035,999,263,.57066E-3,.85937E-3,0
STARLINK-37609,2026-101M,2026-05-22T15:57:46.700640,15.75135221,.000052,97.2844,357.3067,121.5145,238.6171,0,U,69036,999,262,-.13844E-3,-.20679E-3,0
STARLINK-37608,2026-101N,2026-05-22T17:27:43.449408,15.75228771,.0001276,97.2843,357.3744,106.7812,253.3593,0,U,69037,999,263,.84855E-3,.128575E-2,0
STARLINK-37466,2026-101P,2026-05-22T17:26:39.153120,15.73733419,.000121,97.2843,357.3749,144.6077,215.5268,0,U,69038,999,263,-.25625E-2,-.344958E-2,0
STARLINK-37612,2026-101Q,2026-05-22T17:23:09.024864,15.75229742,.0001275,97.2847,357.3793,103.3485,256.7922,0,U,69039,999,263,.89455E-3,.13567E-2,0
STARLINK-37616,2026-101R,2026-05-22T17:23:39.498144,15.75228851,.0001066,97.2847,357.3785,93.8856,266.2531,0,U,69040,999,263,.88307E-3,.133894E-2,0
STARLINK-37614,2026-101S,2026-05-22T17:21:37.541088,15.75223282,.0001069,97.2847,357.3805,85.0706,275.0681,0,U,69041,999,263,.79746E-3,.120684E-2,0
STARLINK-37644,2026-101T,2026-05-22T17:19:05.145312,15.75210812,.0001392,97.2849,357.3825,87.7067,272.4357,0,U,69042,999,263,.53935E-3,.81159E-3,0
STARLINK-37571,2026-101U,2026-05-22T12:45:39.509856,15.75267670,.000148,97.2840,357.1811,110.1180,250.0245,0,U,69043,999,260,.12524E-2,.19156E-2,0
STARLINK-37664,2026-101V,2026-05-22T18:00:02.000160,15.72026212,.0001809,97.2850,357.4134,93.9108,68.9643,0,U,69044,999,384,-.17585E-1,-.20225E-1,0
STARLINK-37667,2026-101W,2026-05-22T17:17:03.159744,15.75212351,.0001309,97.2849,357.3845,79.5409,280.6003,0,U,69045,999,263,.5813E-3,.87552E-3,0
STARLINK-37666,2026-101X,2026-05-22T17:14:00.155040,15.75219150,.0001235,97.2849,357.3878,85.3589,274.7817,0,U,69046,999,263,.67384E-3,.10171E-2,0
STARLINK-37576,2026-101Y,2026-05-22T17:11:27.758400,15.75209808,.0001085,97.2849,357.3911,99.7840,260.3547,0,U,69047,999,263,.56598E-3,.85209E-3,0
STARLINK-37663,2026-101Z,2026-05-22T17:14:30.808896,15.75236862,.0001136,97.2848,357.3869,87.5157,272.6238,0,U,69048,999,263,.11959E-2,.182478E-2,0
TIANZHOU-10,2026-102A,2026-05-22T02:48:59.129856,15.60736689,.00074553,41.4679,120.5221,276.8129,83.1862,0,U,69049,999,202,.13455509E-3,.112E-3,0
QIANFAN-127,2026-104A,2026-05-22T17:19:29.655264,14.25311293,.0003989,88.9869,344.5309,179.7401,180.3795,0,U,69073,999,147,.1514E-4,.5E-6,0
QIANFAN-128,2026-104B,2026-05-22T15:58:37.755264,14.15514641,.0005114,88.9862,344.5415,193.4605,166.6447,0,U,69074,999,146,-.10544E+1,-.1914826E-1,0
